MEAN_MOTION;ECCENTRICITY;INCLINATION;RA_OF_ASC_NODE;ARG_OF_PERICENTER;MEAN_ANOMALY;BSTAR;MEAN_MOTION_DOT;MEAN_MOTION_DDOT;TYPE
14.32676323;5.7E-5;45.0092;230.3071;51.7761;308.3136;6.8248E-5;4.7E-7;0;Orbcomm
14.32676412;5.39E-5;45.0092;228.6686;56.096;303.9938;6.5991E-5;4.0E-7;0;Orbcomm
14.32676781;4.84E-5;45.0093;224.4082;68.4228;291.6669;6.4114E-5;3.5E-7;0;Orbcomm
14.32676819;4.87E-5;45.0093;224.0805;69.0261;291.0638;6.4133E-5;3.5E-7;0;Orbcomm
14.32677125;4.54E-5;45.0093;221.131;78.5764;281.5133;6.3454E-5;3.4E-7;0;Orbcomm
14.32677204;4.53E-5;45.0093;220.1479;81.6945;278.3952;6.2943E-5;3.2E-7;0;Orbcomm
14.32677525;4.32E-5;45.0094;216.5429;93.4848;266.6047;6.0711E-5;2.6E-7;0;Orbcomm
14.32677991;4.36E-5;45.0094;211.627;112.5879;247.5014;6.2283E-5;3.0E-7;0;Orbcomm
14.32678078;4.41E-5;45.0094;210.6439;115.6521;244.4371;6.3415E-5;3.3E-7;0;Orbcomm
14.32678482;4.61E-5;45.0094;206.0558;133.181;226.9075;6.7718E-5;4.5E-7;0;Orbcomm
14.32678772;5.0E-5;45.0094;202.4507;144.1941;215.8938;7.2007E-5;5.7E-7;0;Orbcomm
14.32679005;5.32E-5;45.0095;199.1735;153.3302;206.7572;7.5484E-5;6.7E-7;0;Orbcomm
14.32679075;5.94E-5;45.0094;196.224;159.0687;201.0184;7.0911E-5;5.4E-7;0;Orbcomm
14.3267925;6.57E-5;45.0095;192.9466;165.3778;194.7087;6.9537E-5;5.0E-7;0;Orbcomm
14.32679341;6.7E-5;45.0095;191.6358;167.2971;192.7892;7.03E-5;5.2E-7;0;Orbcomm
14.32679671;7.39E-5;45.0095;188.0308;173.4355;186.6501;7.3825E-5;6.2E-7;0;Orbcomm
14.32679778;7.52E-5;45.0095;187.0477;174.6438;185.4416;7.5297E-5;6.6E-7;0;Orbcomm
14.32680117;8.15E-5;45.0096;183.4428;180.0785;180.0061;7.4477E-5;6.4E-7;0;Orbcomm
14.32680369;8.6E-5;45.0096;180.4934;184.1414;175.9425;7.1578E-5;5.6E-7;0;Orbcomm
14.32680576;9.0E-5;45.0096;178.5271;186.2949;173.7886;7.1639E-5;5.6E-7;0;Orbcomm
14.32680931;9.69E-5;45.0096;174.5945;191.113;168.9694;6.8155E-5;4.6E-7;0;Orbcomm
14.32681021;9.8E-5;45.0096;173.9391;191.9724;168.1099;7.0301E-5;5.2E-7;0;Orbcomm
14.3268133;0.0001056;45.0096;169.3511;197.2088;162.8723;6.3282E-5;3.3E-7;0;Orbcomm
14.32681356;0.0001059;45.0096;169.0234;197.5015;162.5795;6.3518E-5;3.4E-7;0;Orbcomm
14.3268165;0.0001138;45.0095;164.1076;202.4145;157.6651;6.1489E-5;2.8E-7;0;Orbcomm
14.32681883;0.0001213;45.0093;159.1918;207.1871;152.8912;6.0503E-5;2.5E-7;0;Orbcomm
14.32681965;0.000127;45.0093;155.2591;210.7144;149.3628;5.4605E-5;9.0E-8;0;Orbcomm
14.32682076;0.0001316;45.0092;151.9818;213.5645;146.5118;5.2405E-5;3.0E-8;0;Orbcomm
14.32682154;0.0001333;45.0092;150.3433;214.8688;145.2071;5.1668E-5;1.0E-8;0;Orbcomm
14.32682571;0.0001418;45.0092;143.7887;220.2701;139.804;5.1366E-5;0;0;Orbcomm
14.32682624;0.0001435;45.0091;142.8055;220.8433;139.2306;5.1283E-5;0;0;Orbcomm
14.32682927;0.0001478;45.0092;139.2006;223.9076;136.1653;5.2676E-5;4.0E-8;0;Orbcomm
14.32683111;0.0001504;45.0092;136.5788;225.8689;134.2034;5.2399E-5;3.0E-8;0;Orbcomm
14.32683235;0.0001526;45.0092;134.6124;227.52;132.5518;5.021E-5;-3.0E-8;0;Orbcomm
14.32683328;0.0001565;45.0092;131.3352;229.5554;130.5156;4.3878E-5;-2.0E-7;0;Orbcomm
14.32683328;0.0001565;45.0092;131.3352;229.5554;130.5156;4.3878E-5;-2.0E-7;0;Orbcomm
14.32683414;0.0001587;45.0092;129.6965;231.0351;129.0354;4.3336E-5;-2.2E-7;0;Orbcomm
14.32683733;0.0001635;45.0092;125.1083;234.3286;125.7408;4.7144E-5;-1.1E-7;0;Orbcomm
14.3268392;0.0001656;45.0092;123.7973;234.9343;125.1348;5.3465E-5;6.0E-8;0;Orbcomm
14.32684267;0.0001679;45.0092;120.52;237.3672;122.7013;6.3011E-5;3.2E-7;0;Orbcomm
14.32684562;0.0001697;45.0091;117.8982;239.0063;121.0616;7.1975E-5;5.7E-7;0;Orbcomm
14.32684756;0.000172;45.0091;115.604;240.6369;119.4306;7.3526E-5;6.1E-7;0;Orbcomm
14.32685054;0.0001743;45.0092;111.3435;243.682;116.3847;7.0309E-5;5.2E-7;0;Orbcomm
14.3268506;0.0001747;45.0091;111.0157;243.8187;116.2479;6.9232E-5;4.9E-7;0;Orbcomm
14.3268542;0.0001777;45.0092;106.0996;246.8597;113.2062;6.4694E-5;3.7E-7;0;Orbcomm
14.32685539;0.0001776;45.0092;105.1164;247.4976;112.5682;6.5121E-5;3.8E-7;0;Orbcomm
14.32685901;0.0001808;45.0093;101.5113;249.3321;110.7331;6.6818E-5;4.3E-7;0;Orbcomm
14.3268615;0.0001809;45.0094;99.2172;250.6986;109.3664;6.8289E-5;4.7E-7;0;Orbcomm
14.32686707;0.0001844;45.0097;92.007;255.1367;104.9275;6.3905E-5;3.5E-7;0;Orbcomm
14.32686768;0.0001838;45.0097;91.0239;255.7394;104.3248;6.2837E-5;3.2E-7;0;Orbcomm
14.32686809;0.0001815;45.0098;87.4189;258.8999;101.1643;5.4993E-5;1.0E-7;0;Orbcomm
14.32686921;0.0001805;45.0099;85.4526;260.1381;99.9261;5.449E-5;9.0E-8;0;Orbcomm
14.32687041;0.0001805;45.01;82.8307;261.7813;98.2828;5.3795E-5;7.0E-8;0;Orbcomm
14.32687422;0.000181;45.0102;77.9149;264.46;95.6039;5.7398E-5;1.7E-7;0;Orbcomm
14.32687713;0.0001798;45.0102;75.9486;265.537;94.5271;6.5338E-5;3.9E-7;0;Orbcomm
14.32688103;0.0001765;45.0103;71.3605;268.7044;91.36;6.7369E-5;4.4E-7;0;Orbcomm
14.32688372;0.0001773;45.0104;68.7387;270.1173;89.947;6.814E-5;4.6E-7;0;Orbcomm
14.32688899;0.0001757;45.0105;64.4783;272.6898;87.3747;7.1924E-5;5.7E-7;0;Orbcomm
14.32688937;0.0001752;45.0105;64.1506;272.8422;87.2223;7.1905E-5;5.7E-7;0;Orbcomm
14.32689436;0.0001742;45.0107;59.5624;275.0305;85.0342;7.2165E-5;5.7E-7;0;Orbcomm
14.32689458;0.0001736;45.0107;59.2347;275.2374;84.8274;7.109E-5;5.5E-7;0;Orbcomm
14.32689831;0.0001727;45.0109;54.9744;277.57;82.495;6.999E-5;5.2E-7;0;Orbcomm
14.32689929;0.0001708;45.011;53.3358;278.4135;81.6517;6.826E-5;4.7E-7;0;Orbcomm
14.32689962;0.0001707;45.011;52.6804;278.759;81.3063;6.6645E-5;4.2E-7;0;Orbcomm
14.32690191;0.0001694;45.0112;50.0586;280.1699;79.8956;6.8357E-5;4.7E-7;0;Orbcomm
14.32690309;0.0001667;45.0112;48.0923;281.3493;78.7166;6.8366E-5;4.7E-7;0;Orbcomm
14.32690615;0.0001624;45.0114;43.5044;283.7502;76.3163;7.0092E-5;5.2E-7;0;Orbcomm
14.32690902;0.0001588;45.0115;39.2441;285.8733;74.1938;7.1402E-5;5.5E-7;0;Orbcomm
14.32691099;0.0001557;45.0116;35.967;287.5781;72.4895;6.9377E-5;5.0E-7;0;Orbcomm
14.32691186;0.0001538;45.0116;34.3285;288.512;71.5559;6.8239E-5;4.7E-7;0;Orbcomm
14.32691342;0.0001501;45.0116;31.3791;289.9684;70.1;6.4097E-5;3.5E-7;0;Orbcomm
14.3269161;0.0001453;45.0116;26.7912;292.0092;68.06;5.7966E-5;1.8E-7;0;Orbcomm
14.32691622;0.0001446;45.0116;26.4635;292.0953;67.9739;5.6988E-5;1.6E-7;0;Orbcomm
14.32691874;0.0001401;45.0116;21.8755;294.1374;65.9326;5.0175E-5;-3.0E-8;0;Orbcomm
14.32691934;0.0001388;45.0116;20.8925;294.6354;65.4348;4.9788E-5;-4.0E-8;0;Orbcomm
14.32692157;0.000136;45.0116;17.6153;295.9664;64.1042;4.8299E-5;-8.0E-8;0;Orbcomm
14.32692301;0.0001339;45.0116;15.9768;296.7224;63.3485;5.0124E-5;-3.0E-8;0;Orbcomm
14.3269257;0.0001295;45.0115;12.3719;297.6808;62.3907;5.2491E-5;3.0E-8;0;Orbcomm
14.32692651;0.0001285;45.0115;11.3888;298.1561;61.9155;5.4372E-5;9.0E-8;0;Orbcomm
14.32692901;0.0001243;45.0115;8.1116;298.9922;61.08;5.7829E-5;1.8E-7;0;Orbcomm
14.32693165;0.0001207;45.0115;4.8345;300.3561;59.7166;6.3098E-5;3.3E-7;0;Orbcomm
14.32693296;0.0001174;45.0114;2.8682;300.8478;59.2252;6.489E-5;3.8E-7;0;Orbcomm
14.32693423;0.0001152;45.0114;1.8851;301.1521;58.9212;6.8166E-5;4.6E-7;0;Orbcomm
14.32693578;0.0001128;45.0114;359.591;301.7849;58.2887;6.958E-5;5.0E-7;0;Orbcomm
14.32693634;0.000111;45.0113;358.2801;301.9834;58.0904;6.8649E-5;4.8E-7;0;Orbcomm
14.32693934;0.0001041;45.0113;354.0197;302.6729;57.4017;6.7424E-5;4.4E-7;0;Orbcomm
14.32693956;0.0001035;45.0113;353.692;302.5943;57.4803;6.7415E-5;4.4E-7;0;Orbcomm
14.32694358;9.66E-5;45.0112;349.1041;303.0273;57.048;6.6883E-5;4.3E-7;0;Orbcomm
14.32694462;9.52E-5;45.0111;348.121;303.6486;56.4269;6.7443E-5;4.5E-7;0;Orbcomm
14.32694818;8.92E-5;45.0111;344.1883;303.198;56.8781;6.5573E-5;3.9E-7;0;Orbcomm
14.32694908;8.81E-5;45.011;343.2052;303.6111;56.4651;6.4925E-5;3.8E-7;0;Orbcomm
14.32695295;8.25E-5;45.0109;338.617;303.6984;56.3784;6.2736E-5;3.2E-7;0;Orbcomm
14.32695649;7.69E-5;45.0108;334.3566;302.5573;57.5199;6.364E-5;3.4E-7;0;Orbcomm
14.32695949;7.21E-5;45.0108;330.0962;301.4343;58.6432;6.3787E-5;3.4E-7;0;Orbcomm
14.32695981;7.14E-5;45.0108;329.7685;301.2708;58.8068;6.4264E-5;3.6E-7;0;Orbcomm
14.32696271;6.77E-5;45.0106;325.8356;299.4381;60.6398;6.7639E-5;4.5E-7;0;Orbcomm
14.32696369;6.73E-5;45.0106;325.5079;299.4257;60.6522;7.2563E-5;5.9E-7;0;Orbcomm
14.32696632;6.43E-5;45.0106;322.5582;297.2416;62.8365;7.6939E-5;7.1E-7;0;Orbcomm
14.32696684;6.23E-5;45.0105;320.9196;296.0748;64.0035;7.3376E-5;6.1E-7;0;Orbcomm
14.32696742;6.12E-5;45.0105;320.2642;294.9249;65.1533;7.3561E-5;6.1E-7;0;Orbcomm
14.32697034;5.73E-5;45.0104;316.0036;291.0534;69.0251;7.2782E-5;5.9E-7;0;Orbcomm
14.32697533;5.48E-5;45.0104;312.3985;286.9257;73.1529;8.3754E-5;8.9E-7;0;Orbcomm
14.32697396;5.39E-5;45.0104;311.4154;286.0818;73.9969;7.0802E-5;5.4E-7;0;Orbcomm
14.32697701;5.19E-5;45.0104;306.8272;278.4823;81.5964;6.182E-5;2.9E-7;0;Orbcomm
14.32697991;5.13E-5;45.0104;302.2391;273.7172;86.3616;5.3886E-5;7.0E-8;0;Orbcomm
14.32698035;5.12E-5;45.0104;301.5836;272.627;87.4517;5.2385E-5;3.0E-8;0;Orbcomm
14.32698341;5.13E-5;45.0103;297.3232;268.6795;91.3992;4.9786E-5;-4.0E-8;0;Orbcomm
14.32698532;5.3E-5;45.0103;294.3736;264.8552;95.2234;4.8122E-5;-9.0E-8;0;Orbcomm
14.3269869;5.34E-5;45.0103;292.7351;262.7131;97.3655;5.0904E-5;-1.0E-8;0;Orbcomm
14.32699054;5.64E-5;45.0102;288.1469;257.8049;102.2734;5.6301E-5;1.4E-7;0;Orbcomm
14.32699075;5.66E-5;45.0102;287.8192;257.5955;102.4828;5.6356E-5;1.4E-7;0;Orbcomm
14.32699269;5.9E-5;45.0102;284.8696;255.2792;104.7989;5.8789E-5;2.1E-7;0;Orbcomm
14.3269939;5.96E-5;45.0102;283.2311;254.4384;105.6397;6.138E-5;2.8E-7;0;Orbcomm
14.3269939;5.96E-5;45.0102;283.2311;254.4384;105.6397;6.138E-5;2.8E-7;0;Orbcomm
14.32699685;6.32E-5;45.0101;278.6429;251.5954;108.4823;6.4458E-5;3.6E-7;0;Orbcomm
14.32699862;6.61E-5;45.0101;276.021;250.574;109.5035;6.5185E-5;3.8E-7;0;Orbcomm
14.32699891;6.66E-5;45.0101;275.3655;250.004;110.0735;6.3897E-5;3.5E-7;0;Orbcomm
14.32699971;6.77E-5;45.0101;274.0547;249.44;110.6374;6.3585E-5;3.4E-7;0;Orbcomm
14.32700218;7.21E-5;45.0101;269.7942;247.829;112.248;5.911E-5;2.2E-7;0;Orbcomm
14.3270024;7.23E-5;45.0101;269.4665;247.7926;112.2844;5.8758E-5;2.1E-7;0;Orbcomm
14.32700515;7.69E-5;45.0101;264.8784;247.0534;113.0231;5.2709E-5;4.0E-8;0;Orbcomm
